STARLINK-35244          
1 65829U 25221G   25300.52394485  .00038933  00000+0  97839-3 0  9996
2 65829  53.1597 349.8708 0001386  84.4229 275.6934 15.39618393  5614
STARLINK-35368          
1 65830U 25221H   25300.51084426  .00081355  00000+0  14554-2 0  9996
2 65830  53.1595 348.3315 0001393  83.7292 276.3876 15.49312861  5639
STARLINK-35337          
1 65831U 25221J   25300.51153412  .00078836  00000+0  14109-2 0  9995
2 65831  53.1594 348.3360 0002026  57.1293 302.9911 15.49315362  5678
STARLINK-35277          
1 65832U 25221K   25300.51118755  .00077144  00000+0  13817-2 0  9993
2 65832  53.1595 348.3350 0001297  85.6337 274.4820 15.49303026  5679
STARLINK-35345          
1 65833U 25221L   25300.44599258  .00073392  00000+0  13158-2 0  9996
2 65833  53.1597 348.6375 0001409  64.3323 295.7831 15.49298302  5663
STARLINK-35320          
1 65834U 25221M   25300.44530740  .00067945  00000+0  12192-2 0  9992
2 65834  53.1602 348.6343 0001734  52.8058 307.3109 15.49306528  4313
STARLINK-35349          
1 65835U 25221N   25300.38113897  .00105341  00000+0  18708-2 0  9998
2 65835  53.1598 348.9427 0000975 115.7527 244.3583 15.49397527  4304
STARLINK-35356          
1 65836U 25221P   25300.44496289  .00100265  00000+0  17880-2 0  9995
2 65836  53.1601 348.6292 0001814  49.1491 310.9675 15.49304111  4310
STARLINK-35314          
1 65837U 25221Q   25300.44393275  .00074684  00000+0  13385-2 0  9998
2 65837  53.1600 348.6233 0001571  59.8913 300.2251 15.49300167  4311
STARLINK-35324          
1 65838U 25221R   25300.37976529  .00098234  00000+0  17470-2 0  9996
2 65838  53.1593 348.9341 0000896 108.9709 251.1397 15.49392397  4304
STARLINK-35102          
1 65839U 25221S   25300.50809529  .00074699  00000+0  13391-2 0  9994
2 65839  53.1592 348.3125 0001446  87.8026 272.3149 15.49292609  4324
STARLINK-35364          
1 65840U 25221T   25300.50775433  .00066132  00000+0  11843-2 0  9995
2 65840  53.1589 348.3095 0001412  68.3726 291.7434 15.49375306  4320
