CCSDS_OMM_VERS = 2.0
CREATION_DATE  = 
ORIGINATOR     = 

OBJECT_NAME    = STARLINK-35244
OBJECT_ID      = 2025-221G
CENTER_NAME    = EARTH
REF_FRAME      = TEME
TIME_SYSTEM    = UTC
MEAN_ELEMENT_THEORY = SGP/SGP4

EPOCH          = 2025-10-27T12:34:28.835040
MEAN_MOTION    = 15.39618393
ECCENTRICITY   = .0001386
INCLINATION    = 53.1597
RA_OF_ASC_NODE = 349.8708
ARG_OF_PERICENTER = 84.4229
MEAN_ANOMALY   = 275.6934

EPHEMERIS_TYPE = 0
CLASSIFICATION_TYPE = U
NORAD_CAT_ID   = 65829
ELEMENT_SET_NO = 999
REV_AT_EPOCH   = 561
BSTAR          = .97839E-3
MEAN_MOTION_DOT = .38933E-3
MEAN_MOTION_DDOT = 0

CCSDS_OMM_VERS = 2.0
CREATION_DATE  = 
ORIGINATOR     = 

OBJECT_NAME    = STARLINK-35368
OBJECT_ID      = 2025-221H
CENTER_NAME    = EARTH
REF_FRAME      = TEME
TIME_SYSTEM    = UTC
MEAN_ELEMENT_THEORY = SGP/SGP4

EPOCH          = 2025-10-27T12:15:36.944064
MEAN_MOTION    = 15.49312861
ECCENTRICITY   = .0001393
INCLINATION    = 53.1595
RA_OF_ASC_NODE = 348.3315
ARG_OF_PERICENTER = 83.7292
MEAN_ANOMALY   = 276.3876

EPHEMERIS_TYPE = 0
CLASSIFICATION_TYPE = U
NORAD_CAT_ID   = 65830
ELEMENT_SET_NO = 999
REV_AT_EPOCH   = 563
BSTAR          = .14554E-2
MEAN_MOTION_DOT = .81355E-3
MEAN_MOTION_DDOT = 0

CCSDS_OMM_VERS = 2.0
CREATION_DATE  = 
ORIGINATOR     = 

OBJECT_NAME    = STARLINK-35337
OBJECT_ID      = 2025-221J
CENTER_NAME    = EARTH
REF_FRAME      = TEME
TIME_SYSTEM    = UTC
MEAN_ELEMENT_THEORY = SGP/SGP4

EPOCH          = 2025-10-27T12:16:36.547968
MEAN_MOTION    = 15.49315362
ECCENTRICITY   = .0002026
INCLINATION    = 53.1594
RA_OF_ASC_NODE = 348.3360
ARG_OF_PERICENTER = 57.1293
MEAN_ANOMALY   = 302.9911

EPHEMERIS_TYPE = 0
CLASSIFICATION_TYPE = U
NORAD_CAT_ID   = 65831
ELEMENT_SET_NO = 999
REV_AT_EPOCH   = 567
BSTAR          = .14109E-2
MEAN_MOTION_DOT = .78836E-3
MEAN_MOTION_DDOT = 0

CCSDS_OMM_VERS = 2.0
CREATION_DATE  = 
ORIGINATOR     = 

OBJECT_NAME    = STARLINK-35277
OBJECT_ID      = 2025-221K
CENTER_NAME    = EARTH
REF_FRAME      = TEME
TIME_SYSTEM    = UTC
MEAN_ELEMENT_THEORY = SGP/SGP4

EPOCH          = 2025-10-27T12:16:06.604320
MEAN_MOTION    = 15.49303026
ECCENTRICITY   = .0001297
INCLINATION    = 53.1595
RA_OF_ASC_NODE = 348.3350
ARG_OF_PERICENTER = 85.6337
MEAN_ANOMALY   = 274.4820

EPHEMERIS_TYPE = 0
CLASSIFICATION_TYPE = U
NORAD_CAT_ID   = 65832
ELEMENT_SET_NO = 999
REV_AT_EPOCH   = 567
BSTAR          = .13817E-2
MEAN_MOTION_DOT = .77144E-3
MEAN_MOTION_DDOT = 0

CCSDS_OMM_VERS = 2.0
CREATION_DATE  = 
ORIGINATOR     = 

OBJECT_NAME    = STARLINK-35345
OBJECT_ID      = 2025-221L
CENTER_NAME    = EARTH
REF_FRAME      = TEME
TIME_SYSTEM    = UTC
MEAN_ELEMENT_THEORY = SGP/SGP4

EPOCH          = 2025-10-27T10:42:13.758912
MEAN_MOTION    = 15.49298302
ECCENTRICITY   = .0001409
INCLINATION    = 53.1597
RA_OF_ASC_NODE = 348.6375
ARG_OF_PERICENTER = 64.3323
MEAN_ANOMALY   = 295.7831

EPHEMERIS_TYPE = 0
CLASSIFICATION_TYPE = U
NORAD_CAT_ID   = 65833
ELEMENT_SET_NO = 999
REV_AT_EPOCH   = 566
BSTAR          = .13158E-2
MEAN_MOTION_DOT = .73392E-3
MEAN_MOTION_DDOT = 0

CCSDS_OMM_VERS = 2.0
CREATION_DATE  = 
ORIGINATOR     = 

OBJECT_NAME    = STARLINK-35320
OBJECT_ID      = 2025-221M
CENTER_NAME    = EARTH
REF_FRAME      = TEME
TIME_SYSTEM    = UTC
MEAN_ELEMENT_THEORY = SGP/SGP4

EPOCH          = 2025-10-27T10:41:14.559360
MEAN_MOTION    = 15.49306528
ECCENTRICITY   = .0001734
INCLINATION    = 53.1602
RA_OF_ASC_NODE = 348.6343
ARG_OF_PERICENTER = 52.8058
MEAN_ANOMALY   = 307.3109

EPHEMERIS_TYPE = 0
CLASSIFICATION_TYPE = U
NORAD_CAT_ID   = 65834
ELEMENT_SET_NO = 999
REV_AT_EPOCH   = 431
BSTAR          = .12192E-2
MEAN_MOTION_DOT = .67945E-3
MEAN_MOTION_DDOT = 0

CCSDS_OMM_VERS = 2.0
CREATION_DATE  = 
ORIGINATOR     = 

OBJECT_NAME    = STARLINK-35349
OBJECT_ID      = 2025-221N
CENTER_NAME    = EARTH
REF_FRAME      = TEME
TIME_SYSTEM    = UTC
MEAN_ELEMENT_THEORY = SGP/SGP4

EPOCH          = 2025-10-27T09:08:50.407008
MEAN_MOTION    = 15.49397527
ECCENTRICITY   = .0000975
INCLINATION    = 53.1598
RA_OF_ASC_NODE = 348.9427
ARG_OF_PERICENTER = 115.7527
MEAN_ANOMALY   = 244.3583

EPHEMERIS_TYPE = 0
CLASSIFICATION_TYPE = U
NORAD_CAT_ID   = 65835
ELEMENT_SET_NO = 999
REV_AT_EPOCH   = 430
BSTAR          = .18708E-2
MEAN_MOTION_DOT = .105341E-2
MEAN_MOTION_DDOT = 0

CCSDS_OMM_VERS = 2.0
CREATION_DATE  = 
ORIGINATOR     = 

OBJECT_NAME    = STARLINK-35356
OBJECT_ID      = 2025-221P
CENTER_NAME    = EARTH
REF_FRAME      = TEME
TIME_SYSTEM    = UTC
MEAN_ELEMENT_THEORY = SGP/SGP4

EPOCH          = 2025-10-27T10:40:44.793696
MEAN_MOTION    = 15.49304111
ECCENTRICITY   = .0001814
INCLINATION    = 53.1601
RA_OF_ASC_NODE = 348.6292
ARG_OF_PERICENTER = 49.1491
MEAN_ANOMALY   = 310.9675

EPHEMERIS_TYPE = 0
CLASSIFICATION_TYPE = U
NORAD_CAT_ID   = 65836
ELEMENT_SET_NO = 999
REV_AT_EPOCH   = 431
BSTAR          = .1788E-2
MEAN_MOTION_DOT = .100265E-2
MEAN_MOTION_DDOT = 0

CCSDS_OMM_VERS = 2.0
CREATION_DATE  = 
ORIGINATOR     = 

OBJECT_NAME    = STARLINK-35314
OBJECT_ID      = 2025-221Q
CENTER_NAME    = EARTH
REF_FRAME      = TEME
TIME_SYSTEM    = UTC
MEAN_ELEMENT_THEORY = SGP/SGP4

EPOCH          = 2025-10-27T10:39:15.789600
MEAN_MOTION    = 15.49300167
ECCENTRICITY   = .0001571
INCLINATION    = 53.1600
RA_OF_ASC_NODE = 348.6233
ARG_OF_PERICENTER = 59.8913
MEAN_ANOMALY   = 300.2251

EPHEMERIS_TYPE = 0
CLASSIFICATION_TYPE = U
NORAD_CAT_ID   = 65837
ELEMENT_SET_NO = 999
REV_AT_EPOCH   = 431
BSTAR          = .13385E-2
MEAN_MOTION_DOT = .74684E-3
MEAN_MOTION_DDOT = 0

CCSDS_OMM_VERS = 2.0
CREATION_DATE  = 
ORIGINATOR     = 

OBJECT_NAME    = STARLINK-35324
OBJECT_ID      = 2025-221R
CENTER_NAME    = EARTH
REF_FRAME      = TEME
TIME_SYSTEM    = UTC
MEAN_ELEMENT_THEORY = SGP/SGP4

EPOCH          = 2025-10-27T09:06:51.721056
MEAN_MOTION    = 15.49392397
ECCENTRICITY   = .0000896
INCLINATION    = 53.1593
RA_OF_ASC_NODE = 348.9341
ARG_OF_PERICENTER = 108.9709
MEAN_ANOMALY   = 251.1397

EPHEMERIS_TYPE = 0
CLASSIFICATION_TYPE = U
NORAD_CAT_ID   = 65838
ELEMENT_SET_NO = 999
REV_AT_EPOCH   = 430
BSTAR          = .1747E-2
MEAN_MOTION_DOT = .98234E-3
MEAN_MOTION_DDOT = 0

CCSDS_OMM_VERS = 2.0
CREATION_DATE  = 
ORIGINATOR     = 

OBJECT_NAME    = STARLINK-35102
OBJECT_ID      = 2025-221S
CENTER_NAME    = EARTH
REF_FRAME      = TEME
TIME_SYSTEM    = UTC
MEAN_ELEMENT_THEORY = SGP/SGP4

EPOCH          = 2025-10-27T12:11:39.433056
MEAN_MOTION    = 15.49292609
ECCENTRICITY   = .0001446
INCLINATION    = 53.1592
RA_OF_ASC_NODE = 348.3125
ARG_OF_PERICENTER = 87.8026
MEAN_ANOMALY   = 272.3149

EPHEMERIS_TYPE = 0
CLASSIFICATION_TYPE = U
NORAD_CAT_ID   = 65839
ELEMENT_SET_NO = 999
REV_AT_EPOCH   = 432
BSTAR          = .13391E-2
MEAN_MOTION_DOT = .74699E-3
MEAN_MOTION_DDOT = 0

CCSDS_OMM_VERS = 2.0
CREATION_DATE  = 
ORIGINATOR     = 

OBJECT_NAME    = STARLINK-35364
OBJECT_ID      = 2025-221T
CENTER_NAME    = EARTH
REF_FRAME      = TEME
TIME_SYSTEM    = UTC
MEAN_ELEMENT_THEORY = SGP/SGP4

EPOCH          = 2025-10-27T12:11:09.974112
MEAN_MOTION    = 15.49375306
ECCENTRICITY   = .0001412
INCLINATION    = 53.1589
RA_OF_ASC_NODE = 348.3095
ARG_OF_PERICENTER = 68.3726
MEAN_ANOMALY   = 291.7434

EPHEMERIS_TYPE = 0
CLASSIFICATION_TYPE = U
NORAD_CAT_ID   = 65840
ELEMENT_SET_NO = 999
REV_AT_EPOCH   = 432
BSTAR          = .11843E-2
MEAN_MOTION_DOT = .66132E-3
MEAN_MOTION_DDOT = 0

